NORAD_CAT_ID,OBJECT_NAME,OBJECT_TYPE,EPOCH,MEAN_MOTION,ECCENTRICITY,INCLINATION,RA_OF_ASC_NODE,ARG_OF_PERICENTER,MEAN_ANOMALY,BSTAR,MEAN_MOTION_DOT,MEAN_MOTION_DDOT,TLE_LINE0,TLE_LINE1,TLE_LINE2,SEMIMAJOR_AXIS,PERIOD,APOGEE,PERIGEE,DECAYED
53624.0,STARLINK-4596,PAYLOAD,2024-08-08 12:21:12,15.08852388,0.0001431,53.215,309.4146,104.971,255.1441,0.00021428,3.125e-05,0.0,0 STARLINK-4596,1 53624U 22104AN  24221.51472661  .00003125  00000-0  21428-3 0  9993,2 53624  53.2150 309.4146 0001431 104.9710 255.1441 15.08852388108465,6917.843,95.437,540.697,538.718,0.0
53624.0,STARLINK-4596,PAYLOAD,2024-08-09 12:11:59,15.08845151,0.0001488,53.2152,304.9545,79.3472,280.7687,6.4594e-05,7.4e-06,0.0,0 STARLINK-4596,1 53624U 22104AN  24222.50833086  .00000740  00000-0  64594-4 0  9997,2 53624  53.2152 304.9545 0001488  79.3472 280.7687 15.08845151107939,6917.865,95.437,540.759,538.7,0.0
53624.0,STARLINK-4596,PAYLOAD,2024-08-09 15:22:44,15.08879801,0.0001347,53.2152,304.3595,83.707,276.4075,0.00055162,8.511e-05,0.0,0 STARLINK-4596,1 53624U 22104AN  24222.64078987  .00008511  00000-0  55162-3 0  9997,2 53624  53.2152 304.3595 0001347  83.7070 276.4075 15.08879801107959,6917.759,95.435,540.556,538.692,0.0
53624.0,STARLINK-4596,PAYLOAD,2024-08-10 05:41:13,15.08850621,0.0001189,53.2146,301.6832,82.945,277.1677,0.00012856,1.759e-05,0.0,0 STARLINK-4596,1 53624U 22104AN  24223.23696023  .00001759  00000-0  12856-3 0  9990,2 53624  53.2146 301.6832 0001189  82.9450 277.1677 15.08850621108049,6917.848,95.437,540.535,538.89,0.0
53624.0,STARLINK-4596,PAYLOAD,2024-08-10 12:02:48,15.08807227,0.0001691,53.2174,300.4921,120.9527,239.1632,-0.00027424,-4.646e-05,0.0,0 STARLINK-4596,1 53624U 22104AN  24223.50195438 -.00004646  00000-0 -27424-3 0  9991,2 53624  53.2174 300.4921 0001691 120.9527 239.1632 15.08807227108089,6917.981,95.44,541.015,538.676,0.0
53624.0,STARLINK-4596,PAYLOAD,2024-08-11 11:53:34,15.08841301,0.0001305,53.2154,296.0341,74.4369,285.6767,0.00013053,1.79e-05,0.0,0 STARLINK-4596,1 53624U 22104AN  24224.49553587  .00001790  00000-0  13053-3 0  9991,2 53624  53.2154 296.0341 0001305  74.4369 285.6767 15.08841301108235,6917.876,95.437,540.644,538.839,0.0
53624.0,STARLINK-4596,PAYLOAD,2024-08-12 11:44:20,15.0888011,0.0001244,53.216,291.573,94.0519,266.0615,0.0012022,0.00018918,0.0,0 STARLINK-4596,1 53624U 22104AN  24225.48912451  .00018918  00000-0  12022-2 0  9994,2 53624  53.2160 291.5730 0001244  94.0519 266.0615 15.08880110108383,6917.758,95.435,540.483,538.762,0.0
53624.0,STARLINK-4596,PAYLOAD,2024-08-12 13:19:43,15.08886031,0.0001136,53.2165,291.2735,93.2513,266.8609,0.0012581,0.00019817,0.0,0 STARLINK-4596,1 53624U 22104AN  24225.55535914  .00019817  00000-0  12581-2 0  9996,2 53624  53.2165 291.2735 0001136  93.2513 266.8609 15.08886031109071,6917.74,95.435,540.391,538.819,0.0
53624.0,STARLINK-4596,PAYLOAD,2024-08-13 09:59:45,15.08761202,0.0001654,53.2156,287.4056,51.3962,308.7178,-0.0021864,-0.00034842,0.0,0 STARLINK-4596,1 53624U 22104AN  24226.41650297 -.00034842  00000-0 -21864-2 0  9995,2 53624  53.2156 287.4056 0001654  51.3962 308.7178 15.08761202108520,6918.121,95.443,541.131,538.842,0.0
53624.0,STARLINK-4596,PAYLOAD,2024-08-14 13:01:20,15.08835236,0.0001455,53.2156,282.3498,64.7597,295.3546,0.00059748,9.232e-05,0.0,0 STARLINK-4596,1 53624U 22104AN  24227.54259305  .00009232  00000-0  59748-3 0  9991,2 53624  53.2156 282.3498 0001455  64.7597 295.3546 15.08835236108692,6917.895,95.438,540.767,538.753,0.0
53624.0,STARLINK-4596,PAYLOAD,2024-08-14 20:58:15,15.08836332,0.0001467,53.2155,280.8652,62.1185,297.9955,0.00087675,0.00013692,0.0,0 STARLINK-4596,1 53624U 22104AN  24227.87379490  .00013692  00000-0  87675-3 0  9990,2 53624  53.2155 280.8652 0001467  62.1185 297.9955 15.08836332109426,6917.892,95.438,540.771,538.742,0.0
53624.0,STARLINK-4596,PAYLOAD,2024-08-15 09:41:21,15.08841726,0.000156,53.2154,278.4859,56.6093,303.5048,0.0010857,0.00017034,0.0,0 STARLINK-4596,1 53624U 22104AN  24228.40371704  .00017034  00000-0  10857-2 0  9991,2 53624  53.2154 278.4859 0001560  56.6093 303.5048 15.08841726109506,6917.875,95.437,540.819,538.661,0.0
53624.0,STARLINK-4596,PAYLOAD,2024-08-16 09:32:07,15.0884901,0.0001479,53.2146,274.0263,60.8535,299.2605,-1.4025e-06,-3.1e-06,0.0,0 STARLINK-4596,1 53624U 22104AN  24229.39730509 -.00000310  00000-0 -14025-5 0  9997,2 53624  53.2146 274.0263 0001479  60.8535 299.2605 15.08849010108979,6917.853,95.437,540.741,538.695,0.0
53624.0,STARLINK-4596,PAYLOAD,2024-08-17 12:33:40,15.08840278,0.0001495,53.2161,268.9685,75.0933,285.0225,-6.73e-05,-1.359e-05,0.0,0 STARLINK-4596,1 53624U 22104AN  24230.52338887 -.00001359  00000-0 -67300-4 0  9994,2 53624  53.2161 268.9685 0001495  75.0933 285.0225 15.08840278109142,6917.88,95.438,540.779,538.71,0.0
53624.0,STARLINK-4596,PAYLOAD,2024-08-18 02:52:08,15.08843578,0.0001388,53.2151,266.2928,69.3036,290.8105,7.0805e-05,8.39e-06,0.0,0 STARLINK-4596,1 53624U 22104AN  24231.11954113  .00000839  00000-0  70805-4 0  9990,2 53624  53.2151 266.2928 0001388  69.3036 290.8105 15.08843578109230,6917.869,95.437,540.695,538.774,0.0
53624.0,STARLINK-4596,PAYLOAD,2024-08-18 06:02:54,15.08844842,0.000136,53.2149,265.698,69.2391,290.8747,7.9608e-05,9.79e-06,0.0,0 STARLINK-4596,1 53624U 22104AN  24231.25201953  .00000979  00000-0  79608-4 0  9997,2 53624  53.2149 265.6980 0001360  69.2391 290.8747 15.08844842109935,6917.866,95.437,540.671,538.79,0.0
53624.0,STARLINK-4596,PAYLOAD,2024-08-18 12:24:26,15.08847306,0.0001405,53.2158,264.5083,81.2674,278.8477,0.00012133,1.644e-05,0.0,0 STARLINK-4596,1 53624U 22104AN  24231.51697547  .00001644  00000-0  12133-3 0  9993,2 53624  53.2158 264.5083 0001405  81.2674 278.8477 15.08847306109973,6917.858,95.437,540.695,538.751,0.0
53624.0,STARLINK-4596,PAYLOAD,2024-08-19 01:07:32,15.08833975,0.0001567,53.2159,262.1222,132.4851,227.6274,-1.8021e-05,-5.75e-06,0.0,0 STARLINK-4596,1 53624U 22104AN  24232.04690769 -.00000575  00000-0 -18021-4 0  9998,2 53624  53.2159 262.1222 0001567 132.4851 227.6274 15.08833975109376,6917.899,95.438,540.848,538.68,0.0
53624.0,STARLINK-4596,PAYLOAD,2024-08-19 09:04:28,15.08835235,0.0001364,53.2158,260.6427,73.9897,286.1245,6.6258e-05,7.67e-06,0.0,0 STARLINK-4596,1 53624U 22104AN  24232.37810677  .00000767  00000-0  66258-4 0  9992,2 53624  53.2158 260.6427 0001364  73.9897 286.1245 15.08835235110101,6917.895,95.438,540.704,538.816,0.0
53624.0,STARLINK-4596,PAYLOAD,2024-08-20 08:55:15,15.08840101,0.000131,53.2154,256.1818,74.6501,285.4636,-2.0571e-06,-3.21e-06,0.0,0 STARLINK-4596,1 53624U 22104AN  24233.37170659 -.00000321  00000-0 -20571-5 0  9999,2 53624  53.2154 256.1818 0001310  74.6501 285.4636 15.08840101110252,6917.88,95.438,540.651,538.839,0.0
53624.0,STARLINK-4596,PAYLOAD,2024-08-21 08:46:02,15.08836386,0.0001386,53.2151,251.7212,74.5812,285.5333,6.9872e-05,8.24e-06,0.0,0 STARLINK-4596,1 53624U 22104AN  24234.36530990  .00000824  00000-0  69872-4 0  9999,2 53624  53.2151 251.7212 0001386  74.5812 285.5333 15.08836386109720,6917.891,95.438,540.715,538.798,0.0
